[{"OBJECT_NAME":"STARLINK-34826","OBJECT_ID":"2025-190K","EPOCH":"2026-03-09T13:30:04.421088","MEAN_MOTION":15.30186722,"ECCENTRICITY":0.0001002,"INCLINATION":53.1574,"RA_OF_ASC_NODE":168.9178,"ARG_OF_PERICENTER":79.5417,"MEAN_ANOMALY":280.5696,"EPHEMERIS_TYPE":0,"CLASSIFICATION_TYPE":"U","NORAD_CAT_ID":65360,"ELEMENT_SET_NO":999,"REV_AT_EPOCH":2926,"BSTAR":0.00069281,"MEAN_MOTION_DOT":0.00020207,"MEAN_MOTION_DDOT":0},{"OBJECT_NAME":"OBJECT D","OBJECT_ID":"2021-102D","EPOCH":"2026-03-09T14:47:14.426880","MEAN_MOTION":15.2846442,"ECCENTRICITY":0.0009157,"INCLINATION":97.3342,"RA_OF_ASC_NODE":112.2633,"ARG_OF_PERICENTER":187.6206,"MEAN_ANOMALY":172.4897,"EPHEMERIS_TYPE":0,"CLASSIFICATION_TYPE":"U","NORAD_CAT_ID":49398,"ELEMENT_SET_NO":999,"REV_AT_EPOCH":23880,"BSTAR":0.00046011,"MEAN_MOTION_DOT":0.00012697,"MEAN_MOTION_DDOT":0}]
